start=new Date('2021-12-27T00:00:00.000Z').valueOf();
sats=[{"SEMIMAJOR_AXIS":"6925.359","TLE_LINE2":"2 47551  53.0555  68.0598 0001277  83.3337 276.7797 15.06396512 49586","OBJECT_TYPE":"PAYLOAD","MEAN_MOTION_DOT":"-0.00001253","NORAD_CAT_ID":"47551","RA_OF_ASC_NODE":"68.0598","GP_ID":"192525345","BSTAR":"-0.00006526200000","CENTER_NAME":"EARTH","REF_FRAME":"TEME","PERIAPSIS":"546.340","MEAN_MOTION":"15.06396512","OBJECT_NAME":"STARLINK-1938","RCS_SIZE":"LARGE","INCLINATION":"53.0555","MEAN_MOTION_DDOT":"0.0000000000000","MEAN_ANOMALY":"276.7797","SITE":"AFETR","APOAPSIS":"548.109","TIME_SYSTEM":"UTC","TLE_LINE1":"1 47551U 21009D   21360.67828069 -.00001253  00000-0 -65262-4 0  9990","FILE":"3251846","MEAN_ELEMENT_THEORY":"SGP4","CLASSIFICATION_TYPE":"U","COUNTRY_CODE":"US","REV_AT_EPOCH":"4958","EPOCH":"2021-12-26T16:16:43.451616","EPHEMERIS_TYPE":"0","ELEMENT_SET_NO":"999","DECAY_DATE":null,"ARG_OF_PERICENTER":"83.3337","ECCENTRICITY":"0.00012770","OBJECT_ID":"2021-009D","LAUNCH_DATE":"2021-02-04","PERIOD":"95.592"},{"FILE":"3251546","TLE_LINE1":"1 47552U 21009E   21360.55020151  .00008778  00000-0  60734-3 0  9999","MEAN_ELEMENT_THEORY":"SGP4","CLASSIFICATION_TYPE":"U","TIME_SYSTEM":"UTC","COUNTRY_CODE":"US","REV_AT_EPOCH":"4970","ELEMENT_SET_NO":"999","EPOCH":"2021-12-26T13:12:17.410464","EPHEMERIS_TYPE":"0","MEAN_MOTION_DDOT":"0.0000000000000","INCLINATION":"53.0539","RCS_SIZE":"LARGE","MEAN_ANOMALY":"274.2978","APOAPSIS":"547.910","SITE":"AFETR","LAUNCH_DATE":"2021-02-04","PERIOD":"95.592","ARG_OF_PERICENTER":"85.8130","DECAY_DATE":null,"ECCENTRICITY":"0.00010430","OBJECT_ID":"2021-009E","NORAD_CAT_ID":"47552","RA_OF_ASC_NODE":"58.6426","GP_ID":"192495188","SEMIMAJOR_AXIS":"6925.323","TLE_LINE2":"2 47552  53.0539  58.6426 0001043  85.8130 274.2978 15.06408444 49709","MEAN_MOTION_DOT":"0.00008778","OBJECT_TYPE":"PAYLOAD","PERIAPSIS":"546.465","MEAN_MOTION":"15.06408444","OBJECT_NAME":"STARLINK-1940","BSTAR":"0.00060734000000","CENTER_NAME":"EARTH","REF_FRAME":"TEME"},{"TIME_SYSTEM":"UTC","TLE_LINE1":"1 47553U 21009F   21360.43626270  .00114686  00000-0  36066-2 0  9997","MEAN_ELEMENT_THEORY":"SGP4","FILE":"3251546","CLASSIFICATION_TYPE":"U","COUNTRY_CODE":"US","REV_AT_EPOCH":"4974","EPHEMERIS_TYPE":"0","EPOCH":"2021-12-26T10:28:13.097280","ELEMENT_SET_NO":"999","INCLINATION":"53.0601","RCS_SIZE":"LARGE","MEAN_MOTION_DDOT":"0.0000000000000","MEAN_ANOMALY":"317.9941","SITE":"AFETR","APOAPSIS":"470.896","LAUNCH_DATE":"2021-02-04","PERIOD":"93.989","DECAY_DATE":null,"ARG_OF_PERICENTER":"42.1207","ECCENTRICITY":"0.00019220","OBJECT_ID":"2021-009F","NORAD_CAT_ID":"47553","RA_OF_ASC_NODE":"55.3063","GP_ID":"192495927","SEMIMAJOR_AXIS":"6847.715","TLE_LINE2":"2 47553  53.0601  55.3063 0001922  42.1207 317.9941 15.32089991 49748","OBJECT_TYPE":"PAYLOAD","MEAN_MOTION_DOT":"0.00114686","PERIAPSIS":"468.264","MEAN_MOTION":"15.32089991","OBJECT_NAME":"STARLINK-1951","BSTAR":"0.00360660000000","CENTER_NAME":"EARTH","REF_FRAME":"TEME"},{"LAUNCH_DATE":"2021-02-04","PERIOD":"95.592","DECAY_DATE":null,"ARG_OF_PERICENTER":"174.9348","OBJECT_ID":"2021-009G","ECCENTRICITY":"0.00030630","TIME_SYSTEM":"UTC","TLE_LINE1":"1 47554U 21009G   21360.62207254  .00002741  00000-0  20283-3 0  9999","MEAN_ELEMENT_THEORY":"SGP4","FILE":"3251546","CLASSIFICATION_TYPE":"U","COUNTRY_CODE":"US","REV_AT_EPOCH":"4943","EPHEMERIS_TYPE":"0","EPOCH":"2021-12-26T14:55:47.067456","ELEMENT_SET_NO":"999","RCS_SIZE":"LARGE","INCLINATION":"53.0566","MEAN_MOTION_DDOT":"0.0000000000000","MEAN_ANOMALY":"185.1673","SITE":"AFETR","APOAPSIS":"549.328","PERIAPSIS":"545.086","MEAN_MOTION":"15.06402155","OBJECT_NAME":"STARLINK-1953","CENTER_NAME":"EARTH","BSTAR":"0.00020283000000","REF_FRAME":"TEME","NORAD_CAT_ID":"47554","RA_OF_ASC_NODE":"78.3149","GP_ID":"192494688","SEMIMAJOR_AXIS":"6925.342","TLE_LINE2":"2 47554  53.0566  78.3149 0003063 174.9348 185.1673 15.06402155 49432","OBJECT_TYPE":"PAYLOAD","MEAN_MOTION_DOT":"0.00002741"},{"INCLINATION":"53.0536","RCS_SIZE":"LARGE","MEAN_MOTION_DDOT":"0.0000000000000","MEAN_ANOMALY":"251.7016","SITE":"AFETR","APOAPSIS":"548.175","TIME_SYSTEM":"UTC","TLE_LINE1":"1 47555U 21009H   21360.59720295  .00002599  00000-0  19332-3 0  9995","FILE":"3251846","MEAN_ELEMENT_THEORY":"SGP4","CLASSIFICATION_TYPE":"U","COUNTRY_CODE":"US","REV_AT_EPOCH":"4957","EPOCH":"2021-12-26T14:19:58.334880","EPHEMERIS_TYPE":"0","ELEMENT_SET_NO":"999","DECAY_DATE":null,"ARG_OF_PERICENTER":"108.4121","OBJECT_ID":"2021-009H","ECCENTRICITY":"0.00013570","LAUNCH_DATE":"2021-02-04","PERIOD":"95.593","SEMIMAJOR_AXIS":"6925.370","TLE_LINE2":"2 47555  53.0536  68.4318 0001357 108.4121 251.7016 15.06392898 49571","OBJECT_TYPE":"PAYLOAD","MEAN_MOTION_DOT":"0.00002599","NORAD_CAT_ID":"47555","RA_OF_ASC_NODE":"68.4318","GP_ID":"192525846","BSTAR":"0.00019332000000","CENTER_NAME":"EARTH","REF_FRAME":"TEME","PERIAPSIS":"546.296","OBJECT_NAME":"STARLINK-1954","MEAN_MOTION":"15.06392898"},{"LAUNCH_DATE":"2021-02-04","PERIOD":"95.592","ARG_OF_PERICENTER":"93.8661","DECAY_DATE":null,"ECCENTRICITY":"0.00011070","OBJECT_ID":"2021-009J","TLE_LINE1":"1 47556U 21009J   21360.69856040  .00010100  00000-0  69585-3 0  9997","FILE":"3251846","CLASSIFICATION_TYPE":"U","MEAN_ELEMENT_THEORY":"SGP4","TIME_SYSTEM":"UTC","COUNTRY_CODE":"US","REV_AT_EPOCH":"4930","ELEMENT_SET_NO":"999","EPHEMERIS_TYPE":"0","EPOCH":"2021-12-26T16:45:55.618560","MEAN_MOTION_DDOT":"0.0000000000000","INCLINATION":"53.0541","RCS_SIZE":"LARGE","MEAN_ANOMALY":"266.2454","APOAPSIS":"547.960","SITE":"AFETR","PERIAPSIS":"546.426","MEAN_MOTION":"15.06406735","OBJECT_NAME":"STARLINK-1955","BSTAR":"0.00069585000000","CENTER_NAME":"EARTH","REF_FRAME":"TEME","NORAD_CAT_ID":"47556","RA_OF_ASC_NODE":"87.9633","GP_ID":"192524596","SEMIMAJOR_AXIS":"6925.328","TLE_LINE2":"2 47556  53.0541  87.9633 0001107  93.8661 266.2454 15.06406735 49307","MEAN_MOTION_DOT":"0.00010100","OBJECT_TYPE":"PAYLOAD"},{"DECAY_DATE":null,"ARG_OF_PERICENTER":"81.8081","ECCENTRICITY":"0.00014470","OBJECT_ID":"2021-009K","LAUNCH_DATE":"2021-02-04","PERIOD":"95.593","INCLINATION":"53.0550","RCS_SIZE":"LARGE","MEAN_MOTION_DDOT":"0.0000000000000","SITE":"AFETR","APOAPSIS":"548.242","MEAN_ANOMALY":"278.3072","COUNTRY_CODE":"US","TIME_SYSTEM":"UTC","TLE_LINE1":"1 47557U 21009K   21360.66169579 -.00001876  00000-0 -10708-3 0  9994","CLASSIFICATION_TYPE":"U","FILE":"3251846","MEAN_ELEMENT_THEORY":"SGP4","EPOCH":"2021-12-26T15:52:50.516256","EPHEMERIS_TYPE":"0","ELEMENT_SET_NO":"999","REV_AT_EPOCH":"4930","BSTAR":"-0.00010708000000","CENTER_NAME":"EARTH","REF_FRAME":"TEME","OBJECT_NAME":"STARLINK-1956","MEAN_MOTION":"15.06391279","PERIAPSIS":"546.238","SEMIMAJOR_AXIS":"6925.375","OBJECT_TYPE":"PAYLOAD","MEAN_MOTION_DOT":"-0.00001876","TLE_LINE2":"2 47557  53.0550  88.1495 0001447  81.8081 278.3072 15.06391279 49303","NORAD_CAT_ID":"47557","GP_ID":"192524346","RA_OF_ASC_NODE":"88.1495"},{"PERIAPSIS":"546.415","OBJECT_NAME":"STARLINK-1957","MEAN_MOTION":"15.06397600","BSTAR":"0.00024609000000","CENTER_NAME":"EARTH","REF_FRAME":"TEME","NORAD_CAT_ID":"47558","RA_OF_ASC_NODE":"58.2155","GP_ID":"192525598","SEMIMAJOR_AXIS":"6925.356","TLE_LINE2":"2 47558  53.0560  58.2155 0001163  72.5570 287.5546 15.06397600 49718","OBJECT_TYPE":"PAYLOAD","MEAN_MOTION_DOT":"0.00003386","LAUNCH_DATE":"2021-02-04","PERIOD":"95.592","DECAY_DATE":null,"ARG_OF_PERICENTER":"72.5570","OBJECT_ID":"2021-009L","ECCENTRICITY":"0.00011630","TIME_SYSTEM":"UTC","FILE":"3251846","TLE_LINE1":"1 47558U 21009L   21360.64234999  .00003386  00000-0  24609-3 0  9993","CLASSIFICATION_TYPE":"U","MEAN_ELEMENT_THEORY":"SGP4","COUNTRY_CODE":"US","REV_AT_EPOCH":"4971","EPHEMERIS_TYPE":"0","EPOCH":"2021-12-26T15:24:59.039136","ELEMENT_SET_NO":"999","RCS_SIZE":"LARGE","INCLINATION":"53.0560","MEAN_MOTION_DDOT":"0.0000000000000","MEAN_ANOMALY":"287.5546","SITE":"AFETR","APOAPSIS":"548.026"},{"BSTAR":"0.00019167000000","CENTER_NAME":"EARTH","REF_FRAME":"TEME","MEAN_MOTION":"15.06407375","OBJECT_NAME":"STARLINK-1958","PERIAPSIS":"546.122","SEMIMAJOR_AXIS":"6925.326","OBJECT_TYPE":"PAYLOAD","MEAN_MOTION_DOT":"0.00002575","TLE_LINE2":"2 47559  53.0540  48.3884 0001543  68.7264 291.3889 15.06407375 49854","NORAD_CAT_ID":"47559","GP_ID":"192525346","RA_OF_ASC_NODE":"48.3884","DECAY_DATE":null,"ARG_OF_PERICENTER":"68.7264","OBJECT_ID":"2021-009M","ECCENTRICITY":"0.00015430","LAUNCH_DATE":"2021-02-04","PERIOD":"95.592","INCLINATION":"53.0540","RCS_SIZE":"LARGE","MEAN_MOTION_DDOT":"0.0000000000000","SITE":"AFETR","APOAPSIS":"548.260","MEAN_ANOMALY":"291.3889","COUNTRY_CODE":"US","TIME_SYSTEM":"UTC","FILE":"3251846","TLE_LINE1":"1 47559U 21009M   21360.60641398  .00002575  00000-0  19167-3 0  9997","CLASSIFICATION_TYPE":"U","MEAN_ELEMENT_THEORY":"SGP4","EPHEMERIS_TYPE":"0","EPOCH":"2021-12-26T14:33:14.167872","ELEMENT_SET_NO":"999","REV_AT_EPOCH":"4985"},{"GP_ID":"192524096","RA_OF_ASC_NODE":"48.4291","NORAD_CAT_ID":"47560","MEAN_MOTION_DOT":"0.00000693","OBJECT_TYPE":"PAYLOAD","TLE_LINE2":"2 47560  53.0555  48.4291 0001309  84.3070 275.8068 15.06401529 49855","SEMIMAJOR_AXIS":"6925.344","OBJECT_NAME":"STARLINK-1959","MEAN_MOTION":"15.06401529","PERIAPSIS":"546.302","REF_FRAME":"TEME","BSTAR":"0.00006543600000","CENTER_NAME":"EARTH","ELEMENT_SET_NO":"999","EPOCH":"2021-12-26T14:22:36.439104","EPHEMERIS_TYPE":"0","REV_AT_EPOCH":"4985","COUNTRY_CODE":"US","TLE_LINE1":"1 47560U 21009N   21360.59903286  .00000693  00000-0  65436-4 0  9994","FILE":"3251846","MEAN_ELEMENT_THEORY":"SGP4","CLASSIFICATION_TYPE":"U","TIME_SYSTEM":"UTC","APOAPSIS":"548.115","SITE":"AFETR","MEAN_ANOMALY":"275.8068","MEAN_MOTION_DDOT":"0.0000000000000","RCS_SIZE":"LARGE","INCLINATION":"53.0555","PERIOD":"95.592","LAUNCH_DATE":"2021-02-04","OBJECT_ID":"2021-009N","ECCENTRICITY":"0.00013090","ARG_OF_PERICENTER":"84.3070","DECAY_DATE":null}];
